#aV2013 12 20  0  0  0.00000000     288 DD+AD WGS84 FIT  NGA
## 1771 432000.00000000   300.00000000 56646 0.0000000000000
+   31     1  2  3  4  5  6  7  8  9 10 11 12 13 14 15 16 17
+         18 19 20 21 22 23 24 25 26 27 28 29 31 32  0  0  0
+          0  0  0  0  0  0  0  0  0  0  0  0  0  0  0  0  0
+          0  0  0  0  0  0  0  0  0  0  0  0  0  0  0  0  0
+          0  0  0  0  0  0  0  0  0  0  0  0  0  0  0  0  0
++         2  2  2  2  2  2  2  2  2  2  2  2  2  2  2  2  2
++         2  2  2  2  2  2  2  2  2  2  2  2  2  2  0  0  0
++         0  0  0  0  0  0  0  0  0  0  0  0  0  0  0  0  0
++         0  0  0  0  0  0  0  0  0  0  0  0  0  0  0  0  0
++         0  0  0  0  0  0  0  0  0  0  0  0  0  0  0  0  0
%c cc cc ccc ccc cccc cccc cccc cccc ccccc ccccc ccccc ccccc
%c cc cc ccc ccc cccc cccc cccc cccc ccccc ccccc ccccc ccccc
%f  0.0000000  0.000000000  0.00000000000  0.000000000000000
%f  0.0000000  0.000000000  0.00000000000  0.000000000000000
%i    0    0    0    0      0      0      0      0         0
%i    0    0    0    0      0      0      0      0         0
/*      NGA, ST. LOUIS,MO.                                  
/*   EPHEMERIS COMPUTED FROM  1 DAYS OF DATA                
/*   EPOCHA SMOOTHER                                       
/* CCCCCCCCCCCCCCCCCCCCCCCCCCCCCCCCCCCCCCCCCCCCCCCCCCCCCCCCC
*  2013 12 20  7 25  0.00000000
P  1  12096.955162 -22199.104622  -7986.298502     94.644301                    
V  1   8737.162750  -5799.226304  29594.488451      0.028028                    
P  2 -20585.363425  10730.833587 -12189.444488    467.919571                    
V  2   7772.602713 -14486.716192 -25877.925242      0.022059                    
P  3  13351.109929  -7845.292096  21040.373245    301.546739                    
V  3  13065.254809  24855.552694   1124.199694      0.048887                    
P  4 -16871.914493  -3545.720452 -20568.544272      4.340998                    
V  4  15933.436442 -19877.032956  -9541.395511      0.003765                    
P  5 -23797.200019   3684.317975  11342.620089   -394.891249                    
V  5 -13662.628887  -5353.515330 -26672.039598      0.010442                    
P  6  16666.010720    798.173006  20791.415233    200.764229                    
V  6   9475.839017  24505.257769  -8165.478149      0.161816                    
P  7   -836.478421 -18340.594104  19139.166519    293.526238                    
V  7  17331.663192 -16989.341126 -15890.318104      0.041761                    
P  8 -10469.704022 -10040.183447  22402.895957     10.678314                    
V  8  20913.242213 -18598.913778    861.617974      0.002225                    
P  9 -11172.828295  -9226.280046  21734.452935    291.805423                    
V  9  19001.202893 -21666.817333    414.684603      0.028606                    
P 10 -24401.810176  -9562.081964  -5866.630370   -106.616983                    
V 10   7413.931019  -1355.443461 -29899.573500     -0.015746                    
P 11  12088.530500 -23358.048625   2207.313216   -448.283701                    
V 11   3439.464079   5210.387954  30066.985956     -0.033322                    
P 12  -9031.426582  12562.802959 -21603.250421    175.100518                    
V 12 -26433.108642  -6782.205156   7325.710049      0.023181                    
P 13  -4793.154291 -25998.777999  -1671.797413     48.235886                    
V 13   2708.301860   1397.435647 -32171.000424     -0.037734                    
P 14  14263.020233  17656.293604 -13693.842455    207.269918                    
V 14   2644.821740  17575.396206  24884.921192     -0.011289                    
P 15  -7249.273740  17998.942144  17970.441374   -153.180436                    
V 15 -10115.992482 -20846.666953  17042.207603     -0.019961                    
P 16  23801.100199  -2070.158811  11939.846736   -238.262129                    
V 16  14218.743902   5112.172534 -27055.201298      0.012543                    
P 17 -14837.368862 -17363.358968 -13521.979821    -51.670542                    
V 17  -3074.356201 -17296.687614  24908.072181     -0.034698                    
P 18  12110.782712  16058.924528  17931.437157    291.457613                    
V 18 -21883.205086  -2324.418160  16936.722248      0.020980                    
P 19   9315.655666 -16240.837909  18544.160883   -426.600623                    
V 19   7215.706617  22890.811544  16736.296161     -0.025552                    
P 20   5148.326402 -15370.428619 -21222.278245    146.076522                    
V 20  26346.036615   4092.078200   3536.146424      0.030890                    
P 21   4293.711169  17596.630349  19874.633155   -333.879188                    
V 21 -17065.483077  17244.922591 -12441.702119     -0.017253                    
P 22  22215.627952  11505.978796   9333.782651    201.848826                    
V 22 -12038.695222   1135.249105  27693.132157      0.024131                    
P 23   1434.410058 -23298.308400 -12188.979429     19.951991                    
V 23   7623.988064  14117.355687 -26284.533739     -0.032978                    
P 24 -15113.646574  21497.066253  -3576.597942    -20.130825                    
V 24  -5192.126854   1539.870858  31304.101818     -0.006330                    
P 25   5566.013970  15515.431520 -20905.896219      3.615994                    
V 25 -26003.008091  -4324.241838 -10050.312295      0.026634                    
P 26 -13807.307040   4749.516068  21530.164860    217.251082                    
V 26  -6947.892503 -28027.457029   1981.231337     -0.106079                    
P 27  14897.779824  -3258.400160  21740.764511     -9.262625                    
V 27   8824.846048  26166.733193  -2100.940862     -0.026746                    
P 28 -19608.535164 -13628.587434  12398.990911    318.005775                    
V 28  14577.097640   2344.176153  26799.631475      0.029685                    
P 29   3463.569278  25778.163223  -5448.014081    496.655434                    
V 29  -4289.846051  -6010.185658 -30889.182814      0.031149                    
P 31  17751.805723    271.872889 -19683.770207    331.365767                    
V 31 -16472.527527  19115.215860 -14174.494535      0.004850                    
P 32  16635.195266  -8934.187009 -18373.939788   -513.942516                    
V 32  22257.579876   8487.617631  16491.703307      0.054135                    
EOF
